{
  "type": "FeatureCollection",
  "features": [
    {
      "type": "Feature",
      "properties": {
        "norad_id": 66830,
        "name": "STARLINK-35881",
        "group": "last-30-days",
        "lat": 54.33837306003317,
        "lon": -132.30609442117503,
        "alt_km": 332.25194711174754,
        "timestamp": "2025-12-13T07:35:40.338279+00:00",
        "meta_object_name": "STARLINK-35881",
        "meta_object_id": "2025-280K",
        "meta_epoch": "2025-12-12T20:00:01.999872",
        "meta_mean_motion": 15.79805407,
        "meta_eccentricity": 0.00035083,
        "meta_inclination": 69.9926,
        "meta_ra_of_asc_node": 198.5518,
        "meta_arg_of_pericenter": 276.102,
        "meta_mean_anomaly": 278.7868,
        "meta_ephemeris_type": 0,
        "meta_classification_type": "U",
        "meta_norad_cat_id": 66830,
        "meta_element_set_no": 999,
        "meta_rev_at_epoch": 291,
        "meta_bstar": -0.010633459,
        "meta_mean_motion_dot": -0.017006,
        "meta_mean_motion_ddot": 0,
        "tle_line1": "1 66830U 25280K   25346.83335648 -.01700600  00000+0 -10633-1 0  9999",
        "tle_line2": "2 66830  69.9926 198.5518 0003508 276.1020 278.7868 15.79805407  2911"
      },
      "geometry": {
        "type": "Point",
        "coordinates": [
          -132.30609442117503,
          54.33837306003317
        ]
      }
    },
    {
      "type": "Feature",
      "properties": {
        "norad_id": 66831,
        "name": "STARLINK-35788",
        "group": "last-30-days",
        "lat": 55.82666752198332,
        "lon": -130.36742643186764,
        "alt_km": 332.27054859503187,
        "timestamp": "2025-12-13T07:35:40.338288+00:00",
        "meta_object_name": "STARLINK-35788",
        "meta_object_id": "2025-280L",
        "meta_epoch": "2025-12-12T20:00:01.999872",
        "meta_mean_motion": 15.79833976,
        "meta_eccentricity": 0.00036219,
        "meta_inclination": 69.9935,
        "meta_ra_of_asc_node": 198.5503,
        "meta_arg_of_pericenter": 270.085,
        "meta_mean_anomaly": 286.6266,
        "meta_ephemeris_type": 0,
        "meta_classification_type": "U",
        "meta_norad_cat_id": 66831,
        "meta_element_set_no": 999,
        "meta_rev_at_epoch": 291,
        "meta_bstar": -0.010717603,
        "meta_mean_motion_dot": -0.01750142,
        "meta_mean_motion_ddot": 0,
        "tle_line1": "1 66831U 25280L   25346.83335648 -.01750142  00000+0 -10718-1 0  9990",
        "tle_line2": "2 66831  69.9935 198.5503 0003621 270.0850 286.6266 15.79833976  2918"
      },
      "geometry": {
        "type": "Point",
        "coordinates": [
          -130.36742643186764,
          55.82666752198332
        ]
      }
    },
    {
      "type": "Feature",
      "properties": {
        "norad_id": 66832,
        "name": "STARLINK-35768",
        "group": "last-30-days",
        "lat": 57.26652017857056,
        "lon": -128.2978933125015,
        "alt_km": 331.96960467298504,
        "timestamp": "2025-12-13T07:35:40.338297+00:00",
        "meta_object_name": "STARLINK-35768",
        "meta_object_id": "2025-280M",
        "meta_epoch": "2025-12-12T20:00:01.999872",
        "meta_mean_motion": 15.79855527,
        "meta_eccentricity": 0.00036462,
        "meta_inclination": 69.9929,
        "meta_ra_of_asc_node": 198.5475,
        "meta_arg_of_pericenter": 273.5297,
        "meta_mean_anomaly": 284.966,
        "meta_ephemeris_type": 0,
        "meta_classification_type": "U",
        "meta_norad_cat_id": 66832,
        "meta_element_set_no": 999,
        "meta_rev_at_epoch": 291,
        "meta_bstar": -0.010627894,
        "meta_mean_motion_dot": -0.01703374,
        "meta_mean_motion_ddot": 0,
        "tle_line1": "1 66832U 25280M   25346.83335648 -.01703374  00000+0 -10628-1 0  9996",
        "tle_line2": "2 66832  69.9929 198.5475 0003646 273.5297 284.9660 15.79855527  2915"
      },
      "geometry": {
        "type": "Point",
        "coordinates": [
          -128.2978933125015,
          57.26652017857056
        ]
      }
    },
    {
      "type": "Feature",
      "properties": {
        "norad_id": 66833,
        "name": "STARLINK-35858",
        "group": "last-30-days",
        "lat": 58.864275832673066,
        "lon": -125.73275634526165,
        "alt_km": 331.9522688784209,
        "timestamp": "2025-12-13T07:35:40.338308+00:00",
        "meta_object_name": "STARLINK-35858",
        "meta_object_id": "2025-280N",
        "meta_epoch": "2025-12-12T20:00:01.999872",
        "meta_mean_motion": 15.79845008,
        "meta_eccentricity": 0.00036676,
        "meta_inclination": 69.9931,
        "meta_ra_of_asc_node": 198.5454,
        "meta_arg_of_pericenter": 270.62,
        "meta_mean_anomaly": 290.0012,
        "meta_ephemeris_type": 0,
        "meta_classification_type": "U",
        "meta_norad_cat_id": 66833,
        "meta_element_set_no": 999,
        "meta_rev_at_epoch": 291,
        "meta_bstar": -0.010709306,
        "meta_mean_motion_dot": -0.01749777,
        "meta_mean_motion_ddot": 0,
        "tle_line1": "1 66833U 25280N   25346.83335648 -.01749777  00000+0 -10709-1 0  9994",
        "tle_line2": "2 66833  69.9931 198.5454 0003667 270.6200 290.0012 15.79845008  2913"
      },
      "geometry": {
        "type": "Point",
        "coordinates": [
          -125.73275634526165,
          58.864275832673066
        ]
      }
    },
    {
      "type": "Feature",
      "properties": {
        "norad_id": 66834,
        "name": "STARLINK-35840",
        "group": "last-30-days",
        "lat": 60.23898576846252,
        "lon": -123.24625503038065,
        "alt_km": 331.80884719785263,
        "timestamp": "2025-12-13T07:35:40.338317+00:00",
        "meta_object_name": "STARLINK-35840",
        "meta_object_id": "2025-280P",
        "meta_epoch": "2025-12-12T20:00:01.999872",
        "meta_mean_motion": 15.7986852,
        "meta_eccentricity": 0.00036589,
        "meta_inclination": 69.9927,
        "meta_ra_of_asc_node": 198.5427,
        "meta_arg_of_pericenter": 268.1971,
        "meta_mean_anomaly": 294.2549,
        "meta_ephemeris_type": 0,
        "meta_classification_type": "U",
        "meta_norad_cat_id": 66834,
        "meta_element_set_no": 999,
        "meta_rev_at_epoch": 291,
        "meta_bstar": -0.010742176,
        "meta_mean_motion_dot": -0.01756186,
        "meta_mean_motion_ddot": 0,
        "tle_line1": "1 66834U 25280P   25346.83335648 -.01756186  00000+0 -10742-1 0  9994",
        "tle_line2": "2 66834  69.9927 198.5427 0003658 268.1971 294.2549 15.79868520  2911"
      },
      "geometry": {
        "type": "Point",
        "coordinates": [
          -123.24625503038065,
          60.23898576846252
        ]
      }
    },
    {
      "type": "Feature",
      "properties": {
        "norad_id": 66835,
        "name": "STARLINK-35890",
        "group": "last-30-days",
        "lat": 61.647995030506486,
        "lon": -120.36085520498814,
        "alt_km": 331.74769023037516,
        "timestamp": "2025-12-13T07:35:40.338326+00:00",
        "meta_object_name": "STARLINK-35890",
        "meta_object_id": "2025-280Q",
        "meta_epoch": "2025-12-12T20:00:01.999872",
        "meta_mean_motion": 15.79873339,
        "meta_eccentricity": 0.00038273,
        "meta_inclination": 69.9924,
        "meta_ra_of_asc_node": 198.54,
        "meta_arg_of_pericenter": 270.4748,
        "meta_mean_anomaly": 293.9543,
        "meta_ephemeris_type": 0,
        "meta_classification_type": "U",
        "meta_norad_cat_id": 66835,
        "meta_element_set_no": 999,
        "meta_rev_at_epoch": 291,
        "meta_bstar": -0.010755167,
        "meta_mean_motion_dot": -0.01758588,
        "meta_mean_motion_ddot": 0,
        "tle_line1": "1 66835U 25280Q   25346.83335648 -.01758588  00000+0 -10755-1 0  9997",
        "tle_line2": "2 66835  69.9924 198.5400 0003827 270.4748 293.9543 15.79873339  2910"
      },
      "geometry": {
        "type": "Point",
        "coordinates": [
          -120.36085520498814,
          61.647995030506486
        ]
      }
    },
    {
      "type": "Feature",
      "properties": {
        "norad_id": 66836,
        "name": "STARLINK-35838",
        "group": "last-30-days",
        "lat": 63.02242172425071,
        "lon": -117.12616987266136,
        "alt_km": 331.616974174136,
        "timestamp": "2025-12-13T07:35:40.338336+00:00",
        "meta_object_name": "STARLINK-35838",
        "meta_object_id": "2025-280R",
        "meta_epoch": "2025-12-12T20:00:01.999872",
        "meta_mean_motion": 15.79873517,
        "meta_eccentricity": 0.00037714,
        "meta_inclination": 69.9923,
        "meta_ra_of_asc_node": 198.5373,
        "meta_arg_of_pericenter": 270.3284,
        "meta_mean_anomaly": 296.1428,
        "meta_ephemeris_type": 0,
        "meta_classification_type": "U",
        "meta_norad_cat_id": 66836,
        "meta_element_set_no": 999,
        "meta_rev_at_epoch": 291,
        "meta_bstar": -0.010810178,
        "meta_mean_motion_dot": -0.01766475,
        "meta_mean_motion_ddot": 0,
        "tle_line1": "1 66836U 25280R   25346.83335648 -.01766475  00000+0 -10810-1 0  9994",
        "tle_line2": "2 66836  69.9923 198.5373 0003771 270.3284 296.1428 15.79873517  2916"
      },
      "geometry": {
        "type": "Point",
        "coordinates": [
          -117.12616987266136,
          63.02242172425071
        ]
      }
    }
  ]
}